{"fetched_at":"2026-07-07T07:58:36.206Z","source":"https://celestrak.org/NORAD/elements/gp.php?NAME=ICEYE&FORMAT=JSON","constellation":"iceye","records":[{"OBJECT_NAME":"ICEYE-X72","OBJECT_ID":"2026-067CS","EPOCH":"2026-07-06T18:00:02.998944","CLASSIFICATION_TYPE":"U","MEAN_MOTION":14.9463062,"ECCENTRICITY":0.000044,"INCLINATION":97.7629,"RA_OF_ASC_NODE":145.8041,"ARG_OF_PERICENTER":310.5518,"MEAN_ANOMALY":116.4352,"EPHEMERIS_TYPE":0,"NORAD_CAT_ID":68504,"ELEMENT_SET_NO":999,"REV_AT_EPOCH":556,"BSTAR":0.0068459,"MEAN_MOTION_DOT":0.00074859,"MEAN_MOTION_DDOT":0},{"OBJECT_NAME":"ICEYE-X78","OBJECT_ID":"2026-100R","EPOCH":"2026-07-06T15:52:33.045312","CLASSIFICATION_TYPE":"U","MEAN_MOTION":14.91802256,"ECCENTRICITY":0.0003881,"INCLINATION":97.7346,"RA_OF_ASC_NODE":84.7543,"ARG_OF_PERICENTER":71.91,"MEAN_ANOMALY":288.2542,"EPHEMERIS_TYPE":0,"NORAD_CAT_ID":68995,"ELEMENT_SET_NO":999,"REV_AT_EPOCH":960,"BSTAR":0.00011463,"MEAN_MOTION_DOT":0.00001101,"MEAN_MOTION_DDOT":0},{"OBJECT_NAME":"ICEYE-X82","OBJECT_ID":"2026-100S","EPOCH":"2026-07-06T16:20:54.244032","CLASSIFICATION_TYPE":"U","MEAN_MOTION":14.91399647,"ECCENTRICITY":0.0005954,"INCLINATION":97.7337,"RA_OF_ASC_NODE":84.724,"ARG_OF_PERICENTER":84.2497,"MEAN_ANOMALY":275.94,"EPHEMERIS_TYPE":0,"NORAD_CAT_ID":68996,"ELEMENT_SET_NO":999,"REV_AT_EPOCH":960,"BSTAR":0.00024128,"MEAN_MOTION_DOT":0.00002354,"MEAN_MOTION_DDOT":0}]}
