ICEYE-X72               
1 68504U 26067CS  26187.75003471  .00074859  00000+0  68459-2 0  9991
2 68504  97.7629 145.8041 0000440 310.5518 116.4352 14.94630620  5562
ICEYE-X78               
1 68995U 26100R   26187.66149358  .00001101  00000+0  11463-3 0  9992
2 68995  97.7346  84.7543 0003881  71.9100 288.2542 14.91802256  9608
ICEYE-X82               
1 68996U 26100S   26187.68118338  .00002354  00000+0  24128-3 0  9992
2 68996  97.7337  84.7240 0005954  84.2497 275.9400 14.91399647  9603
